NORAD_CAT_ID,OBJECT_NAME,OBJECT_TYPE,EPOCH,MEAN_MOTION,ECCENTRICITY,INCLINATION,RA_OF_ASC_NODE,ARG_OF_PERICENTER,MEAN_ANOMALY,BSTAR,MEAN_MOTION_DOT,MEAN_MOTION_DDOT,TLE_LINE0,TLE_LINE1,TLE_LINE2,SEMIMAJOR_AXIS,PERIOD,APOGEE,PERIGEE,DECAYED
53896.0,STARLINK-5037,PAYLOAD,2023-01-26 01:37:21,15.08842134,0.000125,53.2192,35.4246,95.1142,264.9993,-6.5138e-05,-1.324e-05,0.0,0 STARLINK-5037,1 53896U 22119L   23026.06761146 -.00001324  00000-0 -65138-4 0  9999,2 53896  53.2192  35.4246 0001250  95.1142 264.9993 15.08842134 19377,6917.874,95.437,540.604,538.874,0.0
53896.0,STARLINK-5037,PAYLOAD,2023-01-26 07:58:54,15.08845812,0.000122,53.2183,34.2339,86.4746,273.6386,0.0012032,0.00018916,0.0,0 STARLINK-5037,1 53896U 22119L   23026.33257888  .00018916  00000-0  12032-2 0  9998,2 53896  53.2183  34.2339 0001220  86.4746 273.6386 15.08845812 19837,6917.863,95.437,540.572,538.884,0.0
53896.0,STARLINK-5037,PAYLOAD,2023-01-27 01:28:09,15.08847502,0.0002092,53.2199,30.9643,54.2661,305.8525,0.00054004,8.319e-05,0.0,0 STARLINK-5037,1 53896U 22119L   23027.06122292  .00008319  00000-0  54004-3 0  9991,2 53896  53.2199  30.9643 0002092  54.2661 305.8525 15.08847502 19529,6917.857,95.437,541.17,538.275,0.0
53896.0,STARLINK-5037,PAYLOAD,2023-01-27 07:49:41,15.08850122,0.0001200999999999,53.2181,29.7741,97.4559,262.657,0.00063005,9.756e-05,0.0,0 STARLINK-5037,1 53896U 22119L   23027.32617970  .00009756  00000-0  63005-3 0  9999,2 53896  53.2181  29.7741 0001201  97.4559 262.6570 15.08850122 19983,6917.849,95.437,540.545,538.884,0.0
53896.0,STARLINK-5037,PAYLOAD,2023-01-28 09:15:52,15.08839319,0.0001383,53.219,25.0161,92.8003,267.3147,0.00063647,9.856e-05,0.0,0 STARLINK-5037,1 53896U 22119L   23028.38602783  .00009856  00000-0  63647-3 0  9995,2 53896  53.2190  25.0161 0001383  92.8003 267.3147 15.08839319 19721,6917.882,95.438,540.704,538.791,0.0
53896.0,STARLINK-5037,PAYLOAD,2023-01-29 09:06:39,15.08855349,0.0001335,53.2188,20.5549,96.1784,263.936,0.00046709,7.157e-05,0.0,0 STARLINK-5037,1 53896U 22119L   23029.37962020  .00007157  00000-0  46709-3 0  9990,2 53896  53.2188  20.5549 0001335  96.1784 263.9360 15.08855349 20292,6917.833,95.437,540.622,538.775,0.0
53896.0,STARLINK-5037,PAYLOAD,2023-01-29 23:25:07,15.08845924,0.0001306,53.2188,17.8795,88.6432,271.4709,0.00014783,2.066e-05,0.0,0 STARLINK-5037,1 53896U 22119L   23029.97578320  .00002066  00000-0  14783-3 0  9993,2 53896  53.2188  17.8795 0001306  88.6432 271.4709 15.08845924 19969,6917.862,95.437,540.631,538.824,0.0
53896.0,STARLINK-5037,PAYLOAD,2023-01-30 08:57:26,15.08844279,0.0001298,53.2192,16.0949,91.0455,269.0686,9.1882e-05,1.175e-05,0.0,0 STARLINK-5037,1 53896U 22119L   23030.37322261  .00001175  00000-0  91882-4 0  9996,2 53896  53.2192  16.0949 0001298  91.0455 269.0686 15.08844279 20443,6917.867,95.437,540.63,538.834,0.0
53896.0,STARLINK-5037,PAYLOAD,2023-01-31 08:48:13,15.08848599,0.0001281,53.219,11.6352,84.2413,275.8725,0.00019412,2.804e-05,0.0,0 STARLINK-5037,1 53896U 22119L   23031.36682042  .00002804  00000-0  19412-3 0  9990,2 53896  53.2190  11.6352 0001281  84.2413 275.8725 15.08848599 20178,6917.854,95.437,540.605,538.833,0.0
53896.0,STARLINK-5037,PAYLOAD,2023-02-01 08:39:00,15.08859465,0.0001314,53.2187,7.1754,92.8033,267.311,0.0006136,9.496e-05,0.0,0 STARLINK-5037,1 53896U 22119L   23032.36041687  .00009496  00000-0  61360-3 0  9998,2 53896  53.2187   7.1754 0001314  92.8033 267.3110 15.08859465 20741,6917.821,95.436,540.595,538.777,0.0
53896.0,STARLINK-5037,PAYLOAD,2023-02-02 03:43:38,15.0883442,0.0001355,53.2189,3.6069,86.6224,273.4923,-7.9969e-05,-1.56e-05,0.0,0 STARLINK-5037,1 53896U 22119L   23033.15530528 -.00001560  00000-0 -79969-4 0  9994,2 53896  53.2189   3.6069 0001355  86.6224 273.4923 15.08834420 20442,6917.897,95.438,540.7,538.825,0.0
53896.0,STARLINK-5037,PAYLOAD,2023-02-02 08:29:47,15.08837183,0.0001321,53.2188,2.7146,82.2099,277.9043,-1.0747e-05,-4.59e-06,0.0,0 STARLINK-5037,1 53896U 22119L   23033.35402580 -.00000459  00000-0 -10747-4 0  9997,2 53896  53.2188   2.7146 0001321  82.2099 277.9043 15.08837183 20892,6917.889,95.438,540.668,538.84,0.0
53896.0,STARLINK-5037,PAYLOAD,2023-02-03 01:59:02,15.08847347,0.0001303,53.2191,359.4443,85.0518,275.0623,0.00022234,3.253e-05,0.0,0 STARLINK-5037,1 53896U 22119L   23034.08266368  .00003253  00000-0  22234-3 0  9996,2 53896  53.2191 359.4443 0001303  85.0518 275.0623 15.08847347 20587,6917.858,95.437,540.624,538.822,0.0
53896.0,STARLINK-5037,PAYLOAD,2023-02-03 06:45:11,15.08855135,0.0001283,53.218,358.5513,87.3851,272.7288,0.00052413,8.067e-05,0.0,0 STARLINK-5037,1 53896U 22119L   23034.28138169  .00008067  00000-0  52413-3 0  9995,2 53896  53.2180 358.5513 0001283  87.3851 272.7288 15.08855135 21031,6917.834,95.437,540.587,538.812,0.0
53896.0,STARLINK-5037,PAYLOAD,2023-02-04 06:35:58,15.08851156,0.0001477,53.2182,354.0909,83.5035,276.6125,0.0004865,7.465e-05,0.0,0 STARLINK-5037,1 53896U 22119L   23035.27498643  .00007465  00000-0  48650-3 0  9990,2 53896  53.2182 354.0909 0001477  83.5035 276.6125 15.08851156 20761,6917.846,95.437,540.733,538.69,0.0
53896.0,STARLINK-5037,PAYLOAD,2023-02-04 20:54:27,15.08839002,0.0001386,53.2169,351.4139,81.4762,278.6387,0.00046467,7.115e-05,0.0,0 STARLINK-5037,1 53896U 22119L   23035.87115081  .00007115  00000-0  46467-3 0  9994,2 53896  53.2169 351.4139 0001386  81.4762 278.6387 15.08839002 21270,6917.883,95.438,540.707,538.79,0.0
53896.0,STARLINK-5037,PAYLOAD,2023-02-05 03:15:59,15.08842336,0.0001282,53.2184,350.2258,85.7082,274.4057,0.00046186,7.071e-05,0.0,0 STARLINK-5037,1 53896U 22119L   23036.13610834  .00007071  00000-0  46186-3 0  9999,2 53896  53.2184 350.2258 0001282  85.7082 274.4057 15.08842336 20892,6917.873,95.437,540.625,538.851,0.0
53896.0,STARLINK-5037,PAYLOAD,2023-02-05 06:26:45,15.08851375,0.0001319,53.2191,349.6316,82.4289,277.6853,0.00060234,9.314e-05,0.0,0 STARLINK-5037,1 53896U 22119L   23036.26858744  .00009314  00000-0  60234-3 0  9999,2 53896  53.2191 349.6316 0001319  82.4289 277.6853 15.08851375 21333,6917.846,95.437,540.623,538.798,0.0
53896.0,STARLINK-5037,PAYLOAD,2023-02-05 20:45:14,15.0884206,0.0001103,53.2196,346.956,81.9784,278.1334,0.00024563,3.624e-05,0.0,0 STARLINK-5037,1 53896U 22119L   23036.86474966  .00003624  00000-0  24563-3 0  9998,2 53896  53.2196 346.9560 0001103  81.9784 278.1334 15.08842060 21425,6917.874,95.437,540.502,538.976,0.0
53896.0,STARLINK-5037,PAYLOAD,2023-02-06 03:06:46,15.08847872,0.000114,53.2195,345.7665,86.126,273.9862,0.00044942,6.873e-05,0.0,0 STARLINK-5037,1 53896U 22119L   23037.12970845  .00006873  00000-0  44942-3 0  9997,2 53896  53.2195 345.7665 0001140  86.1260 273.9862 15.08847872 21047,6917.856,95.437,540.51,538.933,0.0
53896.0,STARLINK-5037,PAYLOAD,2023-02-06 06:17:32,15.08857177,0.0001229,53.2198,345.1716,87.5355,272.5778,0.0007187,0.00011174,0.0,0 STARLINK-5037,1 53896U 22119L   23037.26218591  .00011174  00000-0  71870-3 0  9995,2 53896  53.2198 345.1716 0001229  87.5355 272.5778 15.08857177 21487,6917.828,95.436,540.543,538.843,0.0
53896.0,STARLINK-5037,PAYLOAD,2023-02-07 02:57:33,15.08856816,0.0001329,53.2204,341.3068,94.9448,265.1696,0.0004324,6.604e-05,0.0,0 STARLINK-5037,1 53896U 22119L   23038.12330402  .00006604  00000-0  43240-3 0  9999,2 53896  53.2204 341.3068 0001329  94.9448 265.1696 15.08856816 21193,6917.829,95.436,540.613,538.775,0.0
53896.0,STARLINK-5037,PAYLOAD,2023-02-07 06:08:19,15.08865447,0.0001397,53.2202,340.7106,82.7312,277.3839,0.00086058,0.00013444,0.0,0 STARLINK-5037,1 53896U 22119L   23038.25578203  .00013444  00000-0  86058-3 0  9990,2 53896  53.2202 340.7106 0001397  82.7312 277.3839 15.08865447 21630,6917.803,95.436,540.634,538.701,0.0
53896.0,STARLINK-5037,PAYLOAD,2023-02-08 05:59:06,15.08871045,0.000121,53.2195,336.2514,98.2415,261.8715,0.001656,0.00026188,0.0,0 STARLINK-5037,1 53896U 22119L   23039.24937906  .00026188  00000-0  16560-2 0  9998,2 53896  53.2195 336.2514 0001210  98.2415 261.8715 15.08871045 21366,6917.785,95.436,540.488,538.813,0.0
53896.0,STARLINK-5037,PAYLOAD,2023-02-09 02:39:07,15.08842364,9.52e-05,53.2192,332.3867,77.2071,282.9027,0.001443,0.00022753,0.0,0 STARLINK-5037,1 53896U 22119L   23040.11050849  .00022753  00000-0  14430-2 0  9996,2 53896  53.2192 332.3867 0000952  77.2071 282.9027 15.08842364 21494,6917.873,95.437,540.397,539.08,0.0
53896.0,STARLINK-5037,PAYLOAD,2023-02-09 05:49:54,15.08849832,9.6e-05,53.2192,331.7918,72.7184,287.3914,0.0015857,0.00025045,0.0,0 STARLINK-5037,1 53896U 22119L   23040.24298754  .00025045  00000-0  15857-2 0  9990,2 53896  53.2192 331.7918 0000960  72.7184 287.3914 15.08849832 21938,6917.85,95.437,540.379,539.051,0.0
53896.0,STARLINK-5037,PAYLOAD,2023-02-09 23:19:09,15.08844817,0.0001207,53.2175,328.5185,80.2359,279.8769,0.0010863,0.00017045,0.0,0 STARLINK-5037,1 53896U 22119L   23040.97163244  .00017045  00000-0  10863-2 0  9998,2 53896  53.2175 328.5185 0001207  80.2359 279.8769 15.08844817 21620,6917.866,95.437,540.566,538.896,0.0
53896.0,STARLINK-5037,PAYLOAD,2023-02-10 00:54:32,15.08848629,0.000122,53.2185,328.2198,80.6437,279.4693,0.0012696,0.0001998,0.0,0 STARLINK-5037,1 53896U 22119L   23041.03787224  .00019980  00000-0  12696-2 0  9992,2 53896  53.2185 328.2198 0001220  80.6437 279.4693 15.08848629 22053,6917.854,95.437,540.563,538.875,0.0
53896.0,STARLINK-5037,PAYLOAD,2023-02-10 12:02:13,15.08863882,7.64e-05,53.2181,326.1426,118.7467,241.3602,0.0012232,0.00019246,0.0,0 STARLINK-5037,1 53896U 22119L   23041.50154566  .00019246  00000-0  12232-2 0  9992,2 53896  53.2181 326.1426 0000764 118.7467 241.3602 15.08863882 22122,6917.807,95.436,540.201,539.144,0.0
53896.0,STARLINK-5037,PAYLOAD,2023-02-11 02:20:41,15.08873994,0.0001216,53.2181,323.4656,106.2301,253.8825,0.001224,0.00019264,0.0,0 STARLINK-5037,1 53896U 22119L   23042.09770069  .00019264  00000-0  12240-2 0  9998,2 53896  53.2181 323.4656 0001216 106.2301 253.8825 15.08873994 21791,6917.776,95.435,540.483,538.8,0.0
